CCSDS_OMM_VERS = 2.0
CREATION_DATE  = 
ORIGINATOR     = 

OBJECT_NAME    = SL-3 R/B
OBJECT_ID      = 1982-079B
CENTER_NAME    = EARTH
REF_FRAME      = TEME
TIME_SYSTEM    = UTC
MEAN_ELEMENT_THEORY = SGP/SGP4

EPOCH          = 2025-11-26T03:06:03.623040
MEAN_MOTION    = 15.23317317
ECCENTRICITY   = .0026253
INCLINATION    = 81.1463
RA_OF_ASC_NODE = 315.2382
ARG_OF_PERICENTER = 152.6759
MEAN_ANOMALY   = 207.5861

EPHEMERIS_TYPE = 0
CLASSIFICATION_TYPE = U
NORAD_CAT_ID   = 13403
ELEMENT_SET_NO = 999
REV_AT_EPOCH   = 36192
BSTAR          = .26802E-3
MEAN_MOTION_DOT = .6448E-4
MEAN_MOTION_DDOT = 0

CCSDS_OMM_VERS = 2.0
CREATION_DATE  = 
ORIGINATOR     = 

OBJECT_NAME    = SL-14 R/B
OBJECT_ID      = 1982-092B
CENTER_NAME    = EARTH
REF_FRAME      = TEME
TIME_SYSTEM    = UTC
MEAN_ELEMENT_THEORY = SGP/SGP4

EPOCH          = 2025-11-26T04:56:41.030880
MEAN_MOTION    = 14.86529700
ECCENTRICITY   = .0018867
INCLINATION    = 82.5692
RA_OF_ASC_NODE = 238.1727
ARG_OF_PERICENTER = 286.2268
MEAN_ANOMALY   = 225.3586

EPHEMERIS_TYPE = 0
CLASSIFICATION_TYPE = U
NORAD_CAT_ID   = 13553
ELEMENT_SET_NO = 999
REV_AT_EPOCH   = 31355
BSTAR          = .74186E-4
MEAN_MOTION_DOT = .683E-5
MEAN_MOTION_DDOT = 0

CCSDS_OMM_VERS = 2.0
CREATION_DATE  = 
ORIGINATOR     = 

OBJECT_NAME    = SL-3 R/B
OBJECT_ID      = 1983-010B
CENTER_NAME    = EARTH
REF_FRAME      = TEME
TIME_SYSTEM    = UTC
MEAN_ELEMENT_THEORY = SGP/SGP4

EPOCH          = 2025-11-25T21:54:08.339328
MEAN_MOTION    = 15.42831699
ECCENTRICITY   = .00179832
INCLINATION    = 81.1030
RA_OF_ASC_NODE = 129.1485
ARG_OF_PERICENTER = 49.1153
MEAN_ANOMALY   = 311.1644

EPHEMERIS_TYPE = 0
CLASSIFICATION_TYPE = U
NORAD_CAT_ID   = 13819
ELEMENT_SET_NO = 999
REV_AT_EPOCH   = 34192
BSTAR          = .36678068E-3
MEAN_MOTION_DOT = .16207E-3
MEAN_MOTION_DDOT = 0

CCSDS_OMM_VERS = 2.0
CREATION_DATE  = 
ORIGINATOR     = 

OBJECT_NAME    = SL-3 R/B
OBJECT_ID      = 1983-075B
CENTER_NAME    = EARTH
REF_FRAME      = TEME
TIME_SYSTEM    = UTC
MEAN_ELEMENT_THEORY = SGP/SGP4

EPOCH          = 2025-11-26T02:36:22.112064
MEAN_MOTION    = 15.35660191
ECCENTRICITY   = .0021106
INCLINATION    = 97.6108
RA_OF_ASC_NODE = 326.0400
ARG_OF_PERICENTER = 237.3576
MEAN_ANOMALY   = 122.5631

EPHEMERIS_TYPE = 0
CLASSIFICATION_TYPE = U
NORAD_CAT_ID   = 14208
ELEMENT_SET_NO = 999
REV_AT_EPOCH   = 31424
BSTAR          = .34997E-3
MEAN_MOTION_DOT = .12142E-3
MEAN_MOTION_DDOT = 0

CCSDS_OMM_VERS = 2.0
CREATION_DATE  = 
ORIGINATOR     = 

OBJECT_NAME    = COSMOS 1536
OBJECT_ID      = 1984-013A
CENTER_NAME    = EARTH
REF_FRAME      = TEME
TIME_SYSTEM    = UTC
MEAN_ELEMENT_THEORY = SGP/SGP4

EPOCH          = 2025-11-26T04:14:53.516256
MEAN_MOTION    = 15.22258281
ECCENTRICITY   = .0013368
INCLINATION    = 82.5460
RA_OF_ASC_NODE = 210.5849
ARG_OF_PERICENTER = 291.0864
MEAN_ANOMALY   = 68.8943

EPHEMERIS_TYPE = 0
CLASSIFICATION_TYPE = U
NORAD_CAT_ID   = 14699
ELEMENT_SET_NO = 999
REV_AT_EPOCH   = 25686
BSTAR          = .30932E-3
MEAN_MOTION_DOT = .7163E-4
MEAN_MOTION_DDOT = 0

CCSDS_OMM_VERS = 2.0
CREATION_DATE  = 
ORIGINATOR     = 

OBJECT_NAME    = SL-14 R/B
OBJECT_ID      = 1984-027B
CENTER_NAME    = EARTH
REF_FRAME      = TEME
TIME_SYSTEM    = UTC
MEAN_ELEMENT_THEORY = SGP/SGP4

EPOCH          = 2025-11-26T02:58:24.832128
MEAN_MOTION    = 14.85847903
ECCENTRICITY   = .0016924
INCLINATION    = 82.5414
RA_OF_ASC_NODE = 342.1401
ARG_OF_PERICENTER = 320.5495
MEAN_ANOMALY   = 39.4488

EPHEMERIS_TYPE = 0
CLASSIFICATION_TYPE = U
NORAD_CAT_ID   = 14820
ELEMENT_SET_NO = 999
REV_AT_EPOCH   = 23225
BSTAR          = .67698E-4
MEAN_MOTION_DOT = .615E-5
MEAN_MOTION_DDOT = 0

CCSDS_OMM_VERS = 2.0
CREATION_DATE  = 
ORIGINATOR     = 

OBJECT_NAME    = SL-8 R/B
OBJECT_ID      = 1985-006B
CENTER_NAME    = EARTH
REF_FRAME      = TEME
TIME_SYSTEM    = UTC
MEAN_ELEMENT_THEORY = SGP/SGP4

EPOCH          = 2025-11-26T01:45:18.100224
MEAN_MOTION    = 14.37705941
ECCENTRICITY   = .0017966
INCLINATION    = 74.0454
RA_OF_ASC_NODE = 91.7970
ARG_OF_PERICENTER = 28.8944
MEAN_ANOMALY   = 144.3847

EPHEMERIS_TYPE = 0
CLASSIFICATION_TYPE = U
NORAD_CAT_ID   = 15483
ELEMENT_SET_NO = 999
REV_AT_EPOCH   = 13913
BSTAR          = .13047E-3
MEAN_MOTION_DOT = .367E-5
MEAN_MOTION_DDOT = 0

CCSDS_OMM_VERS = 2.0
CREATION_DATE  = 
ORIGINATOR     = 

OBJECT_NAME    = SL-12 R/B(2)
OBJECT_ID      = 1985-042D
CENTER_NAME    = EARTH
REF_FRAME      = TEME
TIME_SYSTEM    = UTC
MEAN_ELEMENT_THEORY = SGP/SGP4

EPOCH          = 2025-11-26T04:54:16.653024
MEAN_MOTION    = 14.21943876
ECCENTRICITY   = .0037654
INCLINATION    = 71.1080
RA_OF_ASC_NODE = 306.3531
ARG_OF_PERICENTER = 285.7014
MEAN_ANOMALY   = 84.6916

EPHEMERIS_TYPE = 0
CLASSIFICATION_TYPE = U
NORAD_CAT_ID   = 15772
ELEMENT_SET_NO = 999
REV_AT_EPOCH   = 9968
BSTAR          = .93691E-4
MEAN_MOTION_DOT = .16E-5
MEAN_MOTION_DDOT = 0

CCSDS_OMM_VERS = 2.0
CREATION_DATE  = 
ORIGINATOR     = 

OBJECT_NAME    = SL-14 R/B
OBJECT_ID      = 1985-069B
CENTER_NAME    = EARTH
REF_FRAME      = TEME
TIME_SYSTEM    = UTC
MEAN_ELEMENT_THEORY = SGP/SGP4

EPOCH          = 2025-11-25T20:53:59.601408
MEAN_MOTION    = 14.86293584
ECCENTRICITY   = .00190116
INCLINATION    = 82.5249
RA_OF_ASC_NODE = 122.5616
ARG_OF_PERICENTER = 171.9452
MEAN_ANOMALY   = 188.2073

EPHEMERIS_TYPE = 0
CLASSIFICATION_TYPE = U
NORAD_CAT_ID   = 15945
ELEMENT_SET_NO = 999
REV_AT_EPOCH   = 15741
BSTAR          = .78779485E-4
MEAN_MOTION_DOT = .72E-5
MEAN_MOTION_DDOT = 0

CCSDS_OMM_VERS = 2.0
CREATION_DATE  = 
ORIGINATOR     = 

OBJECT_NAME    = SL-16 R/B
OBJECT_ID      = 1985-097B
CENTER_NAME    = EARTH
REF_FRAME      = TEME
TIME_SYSTEM    = UTC
MEAN_ELEMENT_THEORY = SGP/SGP4

EPOCH          = 2025-11-26T04:27:44.275104
MEAN_MOTION    = 14.16582404
ECCENTRICITY   = .0005753
INCLINATION    = 71.0041
RA_OF_ASC_NODE = 358.4549
ARG_OF_PERICENTER = 38.7886
MEAN_ANOMALY   = 25.4167

EPHEMERIS_TYPE = 0
CLASSIFICATION_TYPE = U
NORAD_CAT_ID   = 16182
ELEMENT_SET_NO = 999
REV_AT_EPOCH   = 7257
BSTAR          = .3791E-4
MEAN_MOTION_DOT = .28E-6
MEAN_MOTION_DDOT = 0

CCSDS_OMM_VERS = 2.0
CREATION_DATE  = 
ORIGINATOR     = 

OBJECT_NAME    = SL-14 R/B
OBJECT_ID      = 1986-006B
CENTER_NAME    = EARTH
REF_FRAME      = TEME
TIME_SYSTEM    = UTC
MEAN_ELEMENT_THEORY = SGP/SGP4

EPOCH          = 2025-11-26T03:24:59.764032
MEAN_MOTION    = 14.86637916
ECCENTRICITY   = .0075238
INCLINATION    = 82.5273
RA_OF_ASC_NODE = 357.1693
ARG_OF_PERICENTER = 255.6590
MEAN_ANOMALY   = 103.6266

EPHEMERIS_TYPE = 0
CLASSIFICATION_TYPE = U
NORAD_CAT_ID   = 16496
ELEMENT_SET_NO = 999
REV_AT_EPOCH   = 13382
BSTAR          = .87476E-4
MEAN_MOTION_DOT = .842E-5
MEAN_MOTION_DDOT = 0

CCSDS_OMM_VERS = 2.0
CREATION_DATE  = 
ORIGINATOR     = 

OBJECT_NAME    = COSMOS 1743
OBJECT_ID      = 1986-034A
CENTER_NAME    = EARTH
REF_FRAME      = TEME
TIME_SYSTEM    = UTC
MEAN_ELEMENT_THEORY = SGP/SGP4

EPOCH          = 2025-11-26T01:54:06.101856
MEAN_MOTION    = 15.51009465
ECCENTRICITY   = .0005486
INCLINATION    = 82.5355
RA_OF_ASC_NODE = 181.8798
ARG_OF_PERICENTER = 327.6144
MEAN_ANOMALY   = 32.4771

EPHEMERIS_TYPE = 0
CLASSIFICATION_TYPE = U
NORAD_CAT_ID   = 16719
ELEMENT_SET_NO = 999
REV_AT_EPOCH   = 16415
BSTAR          = .52028E-3
MEAN_MOTION_DOT = .30325E-3
MEAN_MOTION_DDOT = 0

