SL-3 R/B                
1 13403U 82079B   25330.12920860  .00006448  00000+0  26802-3 0  9990
2 13403  81.1463 315.2382 0026253 152.6759 207.5861 15.23317317361926
SL-14 R/B               
1 13553U 82092B   25330.20603045  .00000683  00000+0  74186-4 0  9997
2 13553  82.5692 238.1727 0018867 286.2268 225.3586 14.86529700313555
SL-3 R/B                
1 13819U 83010B   25329.91259652  .00016207  00000+0  36678-3 0  9992
2 13819  81.1030 129.1485 0017983  49.1153 311.1644 15.42831699341925
SL-3 R/B                
1 14208U 83075B   25330.10858926  .00012142  00000+0  34997-3 0  9994
2 14208  97.6108 326.0400 0021106 237.3576 122.5631 15.35660191314247
COSMOS 1536             
1 14699U 84013A   25330.17700829  .00007163  00000+0  30932-3 0  9998
2 14699  82.5460 210.5849 0013368 291.0864  68.8943 15.22258281256867
SL-14 R/B               
1 14820U 84027B   25330.12389852  .00000615  00000+0  67698-4 0  9998
2 14820  82.5414 342.1401 0016924 320.5495  39.4488 14.85847903232255
SL-8 R/B                
1 15483U 85006B   25330.07312616  .00000367  00000+0  13047-3 0  9992
2 15483  74.0454  91.7970 0017966  28.8944 144.3847 14.37705941139133
SL-12 R/B(2)            
1 15772U 85042D   25330.20435941  .00000160  00000+0  93691-4 0  9990
2 15772  71.1080 306.3531 0037654 285.7014  84.6916 14.21943876 99685
SL-14 R/B               
1 15945U 85069B   25329.87082872  .00000720  00000+0  78779-4 0  9995
2 15945  82.5249 122.5616 0019012 171.9452 188.2073 14.86293584157418
SL-16 R/B               
1 16182U 85097B   25330.18592911  .00000028  00000+0  37910-4 0  9999
2 16182  71.0041 358.4549 0005753  38.7886  25.4167 14.16582404 72572
SL-14 R/B               
1 16496U 86006B   25330.14235838  .00000842  00000+0  87476-4 0  9992
2 16496  82.5273 357.1693 0075238 255.6590 103.6266 14.86637916133828
COSMOS 1743             
1 16719U 86034A   25330.07923729  .00030325  00000+0  52028-3 0  9999
2 16719  82.5355 181.8798 0005486 327.6144  32.4771 15.51009465164153
